[{"OBJECT_NAME":"SNIPE 4","OBJECT_ID":"2023-072B","EPOCH":"2026-03-09T22:51:01.035648","MEAN_MOTION":15.38255292,"ECCENTRICITY":0.00053591,"INCLINATION":97.5358,"RA_OF_ASC_NODE":272.044,"ARG_OF_PERICENTER":330.1264,"MEAN_ANOMALY":29.9674,"EPHEMERIS_TYPE":0,"CLASSIFICATION_TYPE":"U","NORAD_CAT_ID":56744,"ELEMENT_SET_NO":999,"REV_AT_EPOCH":15483,"BSTAR":0.00061038687,"MEAN_MOTION_DOT":0.00022972,"MEAN_MOTION_DDOT":0},{"OBJECT_NAME":"STARLINK-30884","OBJECT_ID":"2023-177X","EPOCH":"2026-03-09T22:00:01.999584","MEAN_MOTION":15.23769209,"ECCENTRICITY":0.00017969,"INCLINATION":43.001,"RA_OF_ASC_NODE":349.4779,"ARG_OF_PERICENTER":279.7239,"MEAN_ANOMALY":317.8416,"EPHEMERIS_TYPE":0,"CLASSIFICATION_TYPE":"U","NORAD_CAT_ID":58372,"ELEMENT_SET_NO":999,"REV_AT_EPOCH":577,"BSTAR":0.046347095,"MEAN_MOTION_DOT":0.01242915,"MEAN_MOTION_DDOT":0}]
